[{"OBJECT_NAME":"STARLINK-34236","OBJECT_ID":"2025-144V","EPOCH":"2026-03-09T13:42:59.202720","MEAN_MOTION":15.30196896,"ECCENTRICITY":0.0001155,"INCLINATION":53.16,"RA_OF_ASC_NODE":181.5955,"ARG_OF_PERICENTER":78.1403,"MEAN_ANOMALY":281.9727,"EPHEMERIS_TYPE":0,"CLASSIFICATION_TYPE":"U","NORAD_CAT_ID":64743,"ELEMENT_SET_NO":999,"REV_AT_EPOCH":3969,"BSTAR":0.00070619,"MEAN_MOTION_DOT":0.00020612,"MEAN_MOTION_DDOT":0},{"OBJECT_NAME":"OBJECT F","OBJECT_ID":"2021-022F","EPOCH":"2026-03-09T23:37:37.165152","MEAN_MOTION":15.31317672,"ECCENTRICITY":0.00120882,"INCLINATION":97.3982,"RA_OF_ASC_NODE":329.8375,"ARG_OF_PERICENTER":85.9268,"MEAN_ANOMALY":274.3355,"EPHEMERIS_TYPE":0,"CLASSIFICATION_TYPE":"U","NORAD_CAT_ID":47937,"ELEMENT_SET_NO":999,"REV_AT_EPOCH":27452,"BSTAR":0.00038690553,"MEAN_MOTION_DOT":0.00011656,"MEAN_MOTION_DDOT":0}]
